[{"OBJECT_NAME":"PROTOMETHEE","OBJECT_ID":"2023-174BT","EPOCH":"2026-03-09T23:28:08.029344","MEAN_MOTION":15.30202663,"ECCENTRICITY":0.00088339,"INCLINATION":97.3826,"RA_OF_ASC_NODE":147.9552,"ARG_OF_PERICENTER":148.5993,"MEAN_ANOMALY":211.5776,"EPHEMERIS_TYPE":0,"CLASSIFICATION_TYPE":"U","NORAD_CAT_ID":58321,"ELEMENT_SET_NO":999,"REV_AT_EPOCH":12979,"BSTAR":0.00015715731,"MEAN_MOTION_DOT":4.52e-5,"MEAN_MOTION_DDOT":0},{"OBJECT_NAME":"STARLINK-35736","OBJECT_ID":"2025-244AA","EPOCH":"2026-03-09T15:45:15.369696","MEAN_MOTION":15.30209054,"ECCENTRICITY":0.00012019,"INCLINATION":53.1586,"RA_OF_ASC_NODE":230.1149,"ARG_OF_PERICENTER":75.0475,"MEAN_ANOMALY":285.0658,"EPHEMERIS_TYPE":0,"CLASSIFICATION_TYPE":"U","NORAD_CAT_ID":66230,"ELEMENT_SET_NO":999,"REV_AT_EPOCH":2165,"BSTAR":0.00071268137,"MEAN_MOTION_DOT":0.00020813,"MEAN_MOTION_DDOT":0}]
